// AST SpaceMobile TLE data — regenerate with ./update-tles.sh
const TLE_DATA = {
 "fetched": "2026-07-23T08:36:59Z",
 "tles": {
  "SPACEMOBILE-003": [
   "1 61045U 24163A   26203.83708719  .00002021  00000+0  10549-3 0  9994",
   "2 61045  52.9684 145.5029 0003549 221.4656 138.6069 15.20672017103193"
  ],
  "SPACEMOBILE-005": [
   "1 61046U 24163B   26203.88630206  .00005127  00000+0  24526-3 0  9995",
   "2 61046  52.9740 145.2334 0008389 216.1321 143.9107 15.20620713103198"
  ],
  "SPACEMOBILE-001": [
   "1 61047U 24163C   26203.55597270  .00000430  00000+0  34043-4 0  9991",
   "2 61047  52.9703 146.4575 0006823 216.1814 143.8720 15.20677464103146"
  ],
  "SPACEMOBILE-002": [
   "1 61048U 24163D   26203.14593917  .00022005  00000+0  10065-2 0  9999",
   "2 61048  52.9760 148.3864 0004425 214.1604 145.9106 15.20474992103088"
  ],
  "SPACEMOBILE-004": [
   "1 61049U 24163E   26203.12805740  .00021093  00000+0  96140-3 0  9993",
   "2 61049  52.9727 148.2451 0005368 248.8575 111.1846 15.20619582103083"
  ],
  "SPACEMOBILE-001 DEB": [
   "1 62369U 24163F   26203.79474964  .00009206  00000+0  27361-3 0  9993",
   "2 62369  52.9937 111.8053 0005773 282.2016  77.8338 15.35492312 91972"
  ],
  "SPACEMOBILE-002 DEB": [
   "1 62370U 24163G   26203.72999122  .00020880  00000+0  45806-3 0  9991",
   "2 62370  52.9415  95.7315 0004977 313.2117  46.8471 15.44037119103853"
  ],
  "SPACEMOBILE-003 DEB": [
   "1 62371U 24163H   26203.77491975  .00020555  00000+0  48635-3 0  9992",
   "2 62371  52.9703 102.5658 0005472 264.9797  95.0582 15.41782914 97373"
  ],
  "SPACEMOBILE-004 DEB": [
   "1 62372U 24163J   26202.75983389  .00014109  00000+0  34728-3 0  9991",
   "2 62372  52.9839 107.0890 0002898 291.5897  68.4797 15.40890326100281"
  ],
  "SPACEMOBILE-005 DEB": [
   "1 62373U 24163K   26203.75547573  .00010910  00000+0  32962-3 0  9998",
   "2 62373  52.9745 116.9127 0005469 258.6184 101.4202 15.34767982103589"
  ],
  "SPACEMOBILE-006": [
   "1 67232U 25309A   26203.91064971  .00002890  00000+0  15276-3 0  9991",
   "2 67232  52.9955 167.9873 0009487 241.7813 118.2224 15.18689795 32028"
  ],
  "SPACEMOBILE-008": [
   "1 69589U 26139A   26203.02362932  .00000387  00000+0  38732-4 0  9992",
   "2 69589  52.9952 104.4056 0005288  72.6023 287.5546 15.12810954  5259"
  ],
  "SPACEMOBILE-009": [
   "1 69590U 26139B   26203.02606359  .00001404  00000+0  96209-4 0  9992",
   "2 69590  52.9945 104.4147 0005584  69.1876 290.9713 15.12712567  5255"
  ],
  "SPACEMOBILE-010": [
   "1 69591U 26139C   26203.69068104  .00001175  00000+0  83655-4 0  9992",
   "2 69591  52.9950 101.4429 0005604  63.1942 296.9621 15.12550693  5369"
  ],
  "BLUEWALKER-3": [
   "1 53807U 22111AL  26203.77921773  .00004863  00000+0  13556-3 0  9999",
   "2 53807  53.2275 226.8231 0004789 299.0530  60.9995 15.38668225215685"
  ]
 }
};
